GALAXY 16 (G-16)        
1 29236U 06023A   26158.68242674 -.00000112  00000+0  00000+0 0  9997
2 29236   0.0019 244.0292 0002728 192.2785 326.4528  1.00271915 72870
EUTELSAT 33F            
1 29270U 06032A   26158.77995281  .00000171  00000+0  00000+0 0  9998
2 29270   1.6363  82.3501 0003463 350.3779 137.3508  1.00274515 47216
JCSAT-3A                
1 29272U 06033A   26158.82585058 -.00000330  00000+0  00000+0 0  9992
2 29272   0.0137 308.6244 0002129 136.8868 236.0197  1.00270793 47644
KOREASAT 5 (MUGUNGWHA 5)
1 29349U 06034A   26158.79572623 -.00000343  00000+0  00000+0 0  9992
2 29349   1.7601  83.0984 0001415  38.1091 174.5136  1.00272436 41220
DIRECTV 9S              
1 29494U 06043A   26158.68199339 -.00000099  00000+0  00000+0 0  9998
2 29494   2.3953  81.0171 0005088   6.2111 313.1889  1.00271622 51282
OPTUS D1                
1 29495U 06043B   26158.73208603 -.00000168  00000+0  00000+0 0  9997
2 29495   3.0096  79.7717 0003661 352.7369 239.1771  1.00271759 72021
BADR-4                  
1 29526U 06051A   26155.74309133  .00000167  00000+0  00000+0 0  9997
2 29526   1.9707  81.2738 0007892 161.5231 306.4291  1.00450212 51145
WILDBLUE-1              
1 29643U 06054A   26158.60873166 -.00000034  00000+0  00000+0 0  9994
2 29643   2.7775  80.6033 0001555 355.5449 287.8010  1.00272385 53692
SKYNET 5A               
1 30794U 07007B   26158.79217286 -.00000257  00000+0  00000+0 0  9994
2 30794   5.2779  73.8531 0003928   8.4527 194.2829  1.00272561 70602
ANIK F3                 
1 31102U 07009A   26158.60725830  .00000014  00000+0  00000+0 0  9999
2 31102   1.1717  83.9666 0002705 353.9214 278.0033  1.00271070 46466
ASTRA 1L                
1 31306U 07016A   26158.76853707 -.00000169  00000+0  00000+0 0  9997
2 31306   1.2965  81.6566 0005426   4.3390  62.3575  1.00271839 44890
GALAXY 17 (G-17)        
1 31307U 07016B   26158.54262588 -.00000192  00000+0  00000+0 0  9991
2 31307   2.9469  80.0223 0004896  14.6794 271.6000  1.00272039 69701
INTELSAT 11 (IS-11)     
1 32253U 07044B   26158.73520604 -.00000213  00000+0  00000+0 0  9994
2 32253   3.5400  78.7841 0001837  81.2968 168.0781  0.99053762 68351
WGS F1 (USA 195)        
1 32258U 07046A   26158.69359450 -.00000252  00000+0  00000+0 0  9998
2 32258   0.0463  95.7726 0000459 308.0079  59.5299  1.00270122 52243
SKYNET 5B               
1 32294U 07056B   26158.06781159  .00000153  00000+0  00000+0 0  9994
2 32294   5.2277  73.6245 0003947 355.9108 235.4348  1.00269867 68097
ASTRA 4A                
1 32299U 07057A   26158.77434375  .00000047  00000+0  00000+0 0  9995
2 32299   0.0217 309.2239 0002411 128.2363 102.2992  1.00269690 51552
HORIZONS-2              
1 32388U 07063B   26158.54487921 -.00000239  00000+0  00000+0 0  9995
2 32388   2.5764  80.7444 0004057 354.6268 302.9651  1.00272349 67712
THURAYA-3               
1 32404U 08001A   26158.68913969 -.00000120  00000+0  00000+0 0  9997
2 32404   5.9727  35.7812 0001171 152.1414  41.2900  1.00009080 67398
THOR 5                  
1 32487U 08006A   26158.77321708  .00000006  00000+0  00000+0 0  9999
2 32487   0.0410 257.1531 0002604 187.7537  88.8794  1.00272918 67226
AMC-14                  
1 32708U 08011A   26156.67620516 -.00000014  00000+0  00000+0 0  9997
2 32708  23.9919  20.6590 0045826   6.6193 172.4980  1.00353185 68053
DIRECTV 11              
1 32729U 08013A   26158.61107167 -.00000111  00000+0  00000+0 0  9998
2 32729   0.0327 183.0093 0000485 231.4353 322.3797  1.00273719 45494
ICO G1                  
1 32763U 08016A   26158.61237167 -.00000159  00000+0  00000+0 0  9995
2 32763   5.5327  36.1747 0002286  27.2836 320.1475  1.00272604 66443
VINASAT-1               
1 32767U 08018A   26158.79945292 -.00000313  00000+0  00000+0 0  9997
2 32767   0.0106 325.4954 0001263 115.8027 234.6599  1.00272072 66496
STAR ONE C2             
1 32768U 08018B   26158.76047705 -.00000262  00000+0  00000+0 0  9990
2 32768   1.2160  82.5513 0002731 357.6946  24.6944  1.00273136 66560
AMOS-3                  
1 32794U 08022A   26158.77969281  .00000170  00000+0  00000+0 0  9994
2 32794   0.4300  86.3907 0001920  62.4264  60.1016  1.00471358 82242
GALAXY 18 (G-18)        
1 32951U 08024A   26158.74898611  .00000040  00000+0  00000+0 0  9992
2 32951   0.0250  71.7387 0003197  15.2757 315.7680  1.00272856 45751
ZHONGXING-9             
1 33051U 08028A   26158.14999360 -.00000235  00000+0  00000+0 0  9992
2 33051   0.7422  85.4917 0004503 331.6994 344.7479  1.00273576 65932
SKYNET 5C               
1 33055U 08030A   26158.69853453 -.00000125  00000+0  00000+0 0  9999
2 33055   3.7638  77.1524 0004156   9.3617  43.2750  1.00270605 65860
TURKSAT 3A              
1 33056U 08030B   26158.78168617  .00000161  00000+0  00000+0 0  9990
2 33056   0.0731  83.6128 0005257 344.0520 151.9074  1.00272651 52261
INTELSAT 25 (IS-25)     
1 33153U 08034A   26158.73451272 -.00000229  00000+0  00000+0 0  9995
2 33153   2.6831  80.4431 0001891  31.7240 212.1411  0.99020653 65594
ECHOSTAR 11             
1 33207U 08035A   26158.60899166 -.00000043  00000+0  00000+0 0  9994
2 33207   0.9794  84.2922 0002462 339.2930 301.8684  1.00271754 51111
SUPERBIRD-C2            
1 33274U 08038A   26158.80031957 -.00000291  00000+0  00000+0 0  9994
2 33274   2.3359  81.3808 0006026  22.0515 216.8809  1.00271907105636
