OBJECT_NAME,OBJECT_ID,EPOCH,MEAN_MOTION,ECCENTRICITY,INCLINATION,RA_OF_ASC_NODE,ARG_OF_PERICENTER,MEAN_ANOMALY,EPHEMERIS_TYPE,CLASSIFICATION_TYPE,NORAD_CAT_ID,ELEMENT_SET_NO,REV_AT_EPOCH,BSTAR,MEAN_MOTION_DOT,MEAN_MOTION_DDOT
GALAXY 16 (G-16),2006-023A,2026-06-07T16:22:41.670336,1.00271915,.0002728,0.0019,244.0292,192.2785,326.4528,0,U,29236,999,7287,0,-.112E-5,0
EUTELSAT 33F,2006-032A,2026-06-07T18:43:07.922784,1.00274515,.0003463,1.6363,82.3501,350.3779,137.3508,0,U,29270,999,4721,0,.171E-5,0
JCSAT-3A,2006-033A,2026-06-07T19:49:13.490112,1.00270793,.0002129,0.0137,308.6244,136.8868,236.0197,0,U,29272,999,4764,0,-.33E-5,0
KOREASAT 5 (MUGUNGWHA 5),2006-034A,2026-06-07T19:05:50.746272,1.00272436,.0001415,1.7601,83.0984,38.1091,174.5136,0,U,29349,999,4122,0,-.343E-5,0
DIRECTV 9S,2006-043A,2026-06-07T16:22:04.228896,1.00271622,.0005088,2.3953,81.0171,6.2111,313.1889,0,U,29494,999,5128,0,-.99E-6,0
OPTUS D1,2006-043B,2026-06-07T17:34:12.232992,1.00271759,.0003661,3.0096,79.7717,352.7369,239.1771,0,U,29495,999,7202,0,-.168E-5,0
BADR-4,2006-051A,2026-06-04T17:50:03.090912,1.00450212,.00078927,1.9707,81.2738,161.5231,306.4291,0,U,29526,999,5114,0,.167E-5,0
WILDBLUE-1,2006-054A,2026-06-07T14:36:34.415424,1.00272385,.0001555,2.7775,80.6033,355.5449,287.8010,0,U,29643,999,5369,0,-.34E-6,0
SKYNET 5A,2007-007B,2026-06-07T19:00:43.735104,1.00272561,.0003928,5.2779,73.8531,8.4527,194.2829,0,U,30794,999,7060,0,-.257E-5,0
ANIK F3,2007-009A,2026-06-07T14:34:27.117120,1.00271070,.0002705,1.1717,83.9666,353.9214,278.0033,0,U,31102,999,4646,0,.14E-6,0
ASTRA 1L,2007-016A,2026-06-07T18:26:41.602848,1.00271839,.0005426,1.2965,81.6566,4.3390,62.3575,0,U,31306,999,4489,0,-.169E-5,0
GALAXY 17 (G-17),2007-016B,2026-06-07T13:01:22.876032,1.00272039,.0004896,2.9469,80.0223,14.6794,271.6000,0,U,31307,999,6970,0,-.192E-5,0
INTELSAT 11 (IS-11),2007-044B,2026-06-07T17:38:41.801856,0.99053762,.0001837,3.5400,78.7841,81.2968,168.0781,0,U,32253,999,6835,0,-.213E-5,0
WGS F1 (USA 195),2007-046A,2026-06-07T16:38:46.564800,1.00270122,.0000459,0.0463,95.7726,308.0079,59.5299,0,U,32258,999,5224,0,-.252E-5,0
SKYNET 5B,2007-056B,2026-06-07T01:37:38.921376,1.00269867,.0003947,5.2277,73.6245,355.9108,235.4348,0,U,32294,999,6809,0,.153E-5,0
ASTRA 4A,2007-057A,2026-06-07T18:35:03.300000,1.00269690,.0002411,0.0217,309.2239,128.2363,102.2992,0,U,32299,999,5155,0,.47E-6,0
HORIZONS-2,2007-063B,2026-06-07T13:04:37.563744,1.00272349,.0004057,2.5764,80.7444,354.6268,302.9651,0,U,32388,999,6771,0,-.239E-5,0
THURAYA-3,2008-001A,2026-06-07T16:32:21.669216,1.00009080,.0001171,5.9727,35.7812,152.1414,41.2900,0,U,32404,999,6739,0,-.12E-5,0
THOR 5,2008-006A,2026-06-07T18:33:25.955712,1.00272918,.0002604,0.0410,257.1531,187.7537,88.8794,0,U,32487,999,6722,0,.6E-7,0
AMC-14,2008-011A,2026-06-05T16:13:44.125824,1.00353185,.00458262,23.9919,20.6590,6.6193,172.4980,0,U,32708,999,6805,0,-.14E-6,0
DIRECTV 11,2008-013A,2026-06-07T14:39:56.592288,1.00273719,.0000485,0.0327,183.0093,231.4353,322.3797,0,U,32729,999,4549,0,-.111E-5,0
ICO G1,2008-016A,2026-06-07T14:41:48.912288,1.00272604,.0002286,5.5327,36.1747,27.2836,320.1475,0,U,32763,999,6644,0,-.159E-5,0
VINASAT-1,2008-018A,2026-06-07T19:11:12.732288,1.00272072,.0001263,0.0106,325.4954,115.8027,234.6599,0,U,32767,999,6649,0,-.313E-5,0
STAR ONE C2,2008-018B,2026-06-07T18:15:05.217120,1.00273136,.0002731,1.2160,82.5513,357.6946,24.6944,0,U,32768,999,6656,0,-.262E-5,0
AMOS-3,2008-022A,2026-06-07T18:42:45.458784,1.00471358,.000192,0.4300,86.3907,62.4264,60.1016,0,U,32794,999,8224,0,.17E-5,0
GALAXY 18 (G-18),2008-024A,2026-06-07T17:58:32.399904,1.00272856,.0003197,0.0250,71.7387,15.2757,315.7680,0,U,32951,999,4575,0,.4E-6,0
ZHONGXING-9,2008-028A,2026-06-07T03:35:59.447040,1.00273576,.0004503,0.7422,85.4917,331.6994,344.7479,0,U,33051,999,6593,0,-.235E-5,0
SKYNET 5C,2008-030A,2026-06-07T16:45:53.383392,1.00270605,.0004156,3.7638,77.1524,9.3617,43.2750,0,U,33055,999,6586,0,-.125E-5,0
TURKSAT 3A,2008-030B,2026-06-07T18:45:37.685088,1.00272651,.0005257,0.0731,83.6128,344.0520,151.9074,0,U,33056,999,5226,0,.161E-5,0
INTELSAT 25 (IS-25),2008-034A,2026-06-07T17:37:41.899008,0.99020653,.0001891,2.6831,80.4431,31.7240,212.1411,0,U,33153,999,6559,0,-.229E-5,0
ECHOSTAR 11,2008-035A,2026-06-07T14:36:56.879424,1.00271754,.0002462,0.9794,84.2922,339.2930,301.8684,0,U,33207,999,5111,0,-.43E-6,0
SUPERBIRD-C2,2008-038A,2026-06-07T19:12:27.610848,1.00271907,.0006026,2.3359,81.3808,22.0515,216.8809,0,U,33274,999,10563,0,-.291E-5,0
